[{"OBJECT_NAME":"STARLINK-11426 [DTC]","OBJECT_ID":"2024-217B","EPOCH":"2026-03-09T12:57:54.931104","MEAN_MOTION":15.69775184,"ECCENTRICITY":0.0001491,"INCLINATION":53.1575,"RA_OF_ASC_NODE":71.7316,"ARG_OF_PERICENTER":48.9325,"MEAN_ANOMALY":311.1821,"EPHEMERIS_TYPE":0,"CLASSIFICATION_TYPE":"U","NORAD_CAT_ID":62058,"ELEMENT_SET_NO":999,"REV_AT_EPOCH":7509,"BSTAR":0.0013575742,"MEAN_MOTION_DOT":0.00167698,"MEAN_MOTION_DDOT":0},{"OBJECT_NAME":"H-2A R\/B","OBJECT_ID":"2024-176B","EPOCH":"2026-03-09T21:03:59.315040","MEAN_MOTION":15.71096114,"ECCENTRICITY":0.00080006,"INCLINATION":97.2628,"RA_OF_ASC_NODE":207.174,"ARG_OF_PERICENTER":279.669,"MEAN_ANOMALY":80.367,"EPHEMERIS_TYPE":0,"CLASSIFICATION_TYPE":"U","NORAD_CAT_ID":61440,"ELEMENT_SET_NO":999,"REV_AT_EPOCH":8169,"BSTAR":0.00086786138,"MEAN_MOTION_DOT":0.00110274,"MEAN_MOTION_DDOT":0}]
